CCSDS_OMM_VERS = 2.0
CREATION_DATE  = 
ORIGINATOR     = 

OBJECT_NAME    = STARLINK-36154
OBJECT_ID      = 2025-286Q
CENTER_NAME    = EARTH
REF_FRAME      = TEME
TIME_SYSTEM    = UTC
MEAN_ELEMENT_THEORY = SGP/SGP4

EPOCH          = 2025-12-19T06:00:02.000160
MEAN_MOTION    = 15.80657476
ECCENTRICITY   = .00008698
INCLINATION    = 53.1556
RA_OF_ASC_NODE = 17.6645
ARG_OF_PERICENTER = 77.2895
MEAN_ANOMALY   = 256.7979

EPHEMERIS_TYPE = 0
CLASSIFICATION_TYPE = U
NORAD_CAT_ID   = 66939
ELEMENT_SET_NO = 999
REV_AT_EPOCH   = 303
BSTAR          = -.86982822E-2
MEAN_MOTION_DOT = -.1499482E-1
MEAN_MOTION_DDOT = 0

CCSDS_OMM_VERS = 2.0
CREATION_DATE  = 
ORIGINATOR     = 

OBJECT_NAME    = STARLINK-36121
OBJECT_ID      = 2025-286R
CENTER_NAME    = EARTH
REF_FRAME      = TEME
TIME_SYSTEM    = UTC
MEAN_ELEMENT_THEORY = SGP/SGP4

EPOCH          = 2025-12-19T06:00:02.000160
MEAN_MOTION    = 15.80650095
ECCENTRICITY   = .00006428
INCLINATION    = 53.1554
RA_OF_ASC_NODE = 17.6600
ARG_OF_PERICENTER = 85.6064
MEAN_ANOMALY   = 250.5822

EPHEMERIS_TYPE = 0
CLASSIFICATION_TYPE = U
NORAD_CAT_ID   = 66940
ELEMENT_SET_NO = 999
REV_AT_EPOCH   = 303
BSTAR          = -.87723116E-2
MEAN_MOTION_DOT = -.1510101E-1
MEAN_MOTION_DDOT = 0

CCSDS_OMM_VERS = 2.0
CREATION_DATE  = 
ORIGINATOR     = 

OBJECT_NAME    = STARLINK-36088
OBJECT_ID      = 2025-286S
CENTER_NAME    = EARTH
REF_FRAME      = TEME
TIME_SYSTEM    = UTC
MEAN_ELEMENT_THEORY = SGP/SGP4

EPOCH          = 2025-12-19T06:00:02.000160
MEAN_MOTION    = 15.80663678
ECCENTRICITY   = .00006776
INCLINATION    = 53.1552
RA_OF_ASC_NODE = 17.6687
ARG_OF_PERICENTER = 81.0159
MEAN_ANOMALY   = 250.9087

EPHEMERIS_TYPE = 0
CLASSIFICATION_TYPE = U
NORAD_CAT_ID   = 66941
ELEMENT_SET_NO = 999
REV_AT_EPOCH   = 303
BSTAR          = -.85629771E-2
MEAN_MOTION_DOT = -.1479159E-1
MEAN_MOTION_DDOT = 0

CCSDS_OMM_VERS = 2.0
CREATION_DATE  = 
ORIGINATOR     = 

OBJECT_NAME    = STARLINK-36100
OBJECT_ID      = 2025-286T
CENTER_NAME    = EARTH
REF_FRAME      = TEME
TIME_SYSTEM    = UTC
MEAN_ELEMENT_THEORY = SGP/SGP4

EPOCH          = 2025-12-19T06:00:02.000160
MEAN_MOTION    = 15.80635598
ECCENTRICITY   = .00006909
INCLINATION    = 53.1554
RA_OF_ASC_NODE = 17.6555
ARG_OF_PERICENTER = 75.9606
MEAN_ANOMALY   = 262.3892

EPHEMERIS_TYPE = 0
CLASSIFICATION_TYPE = U
NORAD_CAT_ID   = 66942
ELEMENT_SET_NO = 999
REV_AT_EPOCH   = 296
BSTAR          = -.88479775E-2
MEAN_MOTION_DOT = -.1520671E-1
MEAN_MOTION_DDOT = 0

CCSDS_OMM_VERS = 2.0
CREATION_DATE  = 
ORIGINATOR     = 

OBJECT_NAME    = STARLINK-36109
OBJECT_ID      = 2025-286U
CENTER_NAME    = EARTH
REF_FRAME      = TEME
TIME_SYSTEM    = UTC
MEAN_ELEMENT_THEORY = SGP/SGP4

EPOCH          = 2025-12-19T06:00:02.000160
MEAN_MOTION    = 15.80595176
ECCENTRICITY   = .00006845
INCLINATION    = 53.1552
RA_OF_ASC_NODE = 17.6502
ARG_OF_PERICENTER = 85.7276
MEAN_ANOMALY   = 255.0124

EPHEMERIS_TYPE = 0
CLASSIFICATION_TYPE = U
NORAD_CAT_ID   = 66943
ELEMENT_SET_NO = 999
REV_AT_EPOCH   = 296
BSTAR          = -.89526805E-2
MEAN_MOTION_DOT = -.1533915E-1
MEAN_MOTION_DDOT = 0

CCSDS_OMM_VERS = 2.0
CREATION_DATE  = 
ORIGINATOR     = 

OBJECT_NAME    = STARLINK-36112
OBJECT_ID      = 2025-286V
CENTER_NAME    = EARTH
REF_FRAME      = TEME
TIME_SYSTEM    = UTC
MEAN_ELEMENT_THEORY = SGP/SGP4

EPOCH          = 2025-12-19T06:00:02.000160
MEAN_MOTION    = 15.80584530
ECCENTRICITY   = .00007176
INCLINATION    = 53.1549
RA_OF_ASC_NODE = 17.6455
ARG_OF_PERICENTER = 83.1885
MEAN_ANOMALY   = 259.6416

EPHEMERIS_TYPE = 0
CLASSIFICATION_TYPE = U
NORAD_CAT_ID   = 66944
ELEMENT_SET_NO = 999
REV_AT_EPOCH   = 303
BSTAR          = -.89955351E-2
MEAN_MOTION_DOT = -.1539704E-1
MEAN_MOTION_DDOT = 0

CCSDS_OMM_VERS = 2.0
CREATION_DATE  = 
ORIGINATOR     = 

OBJECT_NAME    = STARLINK-36110
OBJECT_ID      = 2025-286W
CENTER_NAME    = EARTH
REF_FRAME      = TEME
TIME_SYSTEM    = UTC
MEAN_ELEMENT_THEORY = SGP/SGP4

EPOCH          = 2025-12-19T06:00:02.000160
MEAN_MOTION    = 15.80545066
ECCENTRICITY   = .00007152
INCLINATION    = 53.1549
RA_OF_ASC_NODE = 17.6404
ARG_OF_PERICENTER = 82.2173
MEAN_ANOMALY   = 262.9604

EPHEMERIS_TYPE = 0
CLASSIFICATION_TYPE = U
NORAD_CAT_ID   = 66945
ELEMENT_SET_NO = 999
REV_AT_EPOCH   = 303
BSTAR          = -.90750177E-2
MEAN_MOTION_DOT = -.1549119E-1
MEAN_MOTION_DDOT = 0

CCSDS_OMM_VERS = 2.0
CREATION_DATE  = 
ORIGINATOR     = 

OBJECT_NAME    = STARLINK-36115
OBJECT_ID      = 2025-286X
CENTER_NAME    = EARTH
REF_FRAME      = TEME
TIME_SYSTEM    = UTC
MEAN_ELEMENT_THEORY = SGP/SGP4

EPOCH          = 2025-12-19T06:00:02.000160
MEAN_MOTION    = 15.80525875
ECCENTRICITY   = .00007312
INCLINATION    = 53.1548
RA_OF_ASC_NODE = 17.6361
ARG_OF_PERICENTER = 80.9288
MEAN_ANOMALY   = 266.4120

EPHEMERIS_TYPE = 0
CLASSIFICATION_TYPE = U
NORAD_CAT_ID   = 66946
ELEMENT_SET_NO = 999
REV_AT_EPOCH   = 303
BSTAR          = -.91308306E-2
MEAN_MOTION_DOT = -.1556249E-1
MEAN_MOTION_DDOT = 0

CCSDS_OMM_VERS = 2.0
CREATION_DATE  = 
ORIGINATOR     = 

OBJECT_NAME    = STARLINK-36089
OBJECT_ID      = 2025-286Y
CENTER_NAME    = EARTH
REF_FRAME      = TEME
TIME_SYSTEM    = UTC
MEAN_ELEMENT_THEORY = SGP/SGP4

EPOCH          = 2025-12-19T06:00:02.000160
MEAN_MOTION    = 15.80469118
ECCENTRICITY   = .00009297
INCLINATION    = 53.1548
RA_OF_ASC_NODE = 17.6271
ARG_OF_PERICENTER = 79.8159
MEAN_ANOMALY   = 272.0105

EPHEMERIS_TYPE = 0
CLASSIFICATION_TYPE = U
NORAD_CAT_ID   = 66947
ELEMENT_SET_NO = 999
REV_AT_EPOCH   = 303
BSTAR          = -.92711398E-2
MEAN_MOTION_DOT = -.1573637E-1
MEAN_MOTION_DDOT = 0

CCSDS_OMM_VERS = 2.0
CREATION_DATE  = 
ORIGINATOR     = 

OBJECT_NAME    = STARLINK-36116
OBJECT_ID      = 2025-286Z
CENTER_NAME    = EARTH
REF_FRAME      = TEME
TIME_SYSTEM    = UTC
MEAN_ELEMENT_THEORY = SGP/SGP4

EPOCH          = 2025-12-19T06:00:02.000160
MEAN_MOTION    = 15.80474452
ECCENTRICITY   = .00007385
INCLINATION    = 53.1549
RA_OF_ASC_NODE = 17.6314
ARG_OF_PERICENTER = 80.0909
MEAN_ANOMALY   = 269.6738

EPHEMERIS_TYPE = 0
CLASSIFICATION_TYPE = U
NORAD_CAT_ID   = 66948
ELEMENT_SET_NO = 999
REV_AT_EPOCH   = 303
BSTAR          = -.92101278E-2
MEAN_MOTION_DOT = -.1564789E-1
MEAN_MOTION_DDOT = 0

CCSDS_OMM_VERS = 2.0
CREATION_DATE  = 
ORIGINATOR     = 

OBJECT_NAME    = STARLINK-36096
OBJECT_ID      = 2025-286AA
CENTER_NAME    = EARTH
REF_FRAME      = TEME
TIME_SYSTEM    = UTC
MEAN_ELEMENT_THEORY = SGP/SGP4

EPOCH          = 2025-12-19T06:00:02.000160
MEAN_MOTION    = 15.80457233
ECCENTRICITY   = .00007388
INCLINATION    = 53.1551
RA_OF_ASC_NODE = 17.6225
ARG_OF_PERICENTER = 79.9334
MEAN_ANOMALY   = 273.9826

EPHEMERIS_TYPE = 0
CLASSIFICATION_TYPE = U
NORAD_CAT_ID   = 66949
ELEMENT_SET_NO = 999
REV_AT_EPOCH   = 303
BSTAR          = -.93115964E-2
MEAN_MOTION_DOT = -.1578728E-1
MEAN_MOTION_DDOT = 0

CCSDS_OMM_VERS = 2.0
CREATION_DATE  = 
ORIGINATOR     = 

OBJECT_NAME    = STARLINK-36111
OBJECT_ID      = 2025-286AB
CENTER_NAME    = EARTH
REF_FRAME      = TEME
TIME_SYSTEM    = UTC
MEAN_ELEMENT_THEORY = SGP/SGP4

EPOCH          = 2025-12-19T06:00:02.000160
MEAN_MOTION    = 15.80423004
ECCENTRICITY   = .00008733
INCLINATION    = 53.1549
RA_OF_ASC_NODE = 17.6138
ARG_OF_PERICENTER = 78.1952
MEAN_ANOMALY   = 280.0088

EPHEMERIS_TYPE = 0
CLASSIFICATION_TYPE = U
NORAD_CAT_ID   = 66950
ELEMENT_SET_NO = 999
REV_AT_EPOCH   = 303
BSTAR          = -.94305605E-2
MEAN_MOTION_DOT = -.1594182E-1
MEAN_MOTION_DDOT = 0

CCSDS_OMM_VERS = 2.0
CREATION_DATE  = 
ORIGINATOR     = 

OBJECT_NAME    = STARLINK-35999
OBJECT_ID      = 2025-286AC
CENTER_NAME    = EARTH
REF_FRAME      = TEME
TIME_SYSTEM    = UTC
MEAN_ELEMENT_THEORY = SGP/SGP4

EPOCH          = 2025-12-19T06:00:02.000160
MEAN_MOTION    = 15.80396532
ECCENTRICITY   = .00008565
INCLINATION    = 53.1550
RA_OF_ASC_NODE = 17.6092
ARG_OF_PERICENTER = 81.1888
MEAN_ANOMALY   = 279.2346

EPHEMERIS_TYPE = 0
CLASSIFICATION_TYPE = U
NORAD_CAT_ID   = 66951
ELEMENT_SET_NO = 999
REV_AT_EPOCH   = 303
BSTAR          = -.95022254E-2
MEAN_MOTION_DOT = -.1602992E-1
MEAN_MOTION_DDOT = 0

CCSDS_OMM_VERS = 2.0
CREATION_DATE  = 
ORIGINATOR     = 

OBJECT_NAME    = STARLINK-36122
OBJECT_ID      = 2025-286AD
CENTER_NAME    = EARTH
REF_FRAME      = TEME
TIME_SYSTEM    = UTC
MEAN_ELEMENT_THEORY = SGP/SGP4

EPOCH          = 2025-12-19T06:00:02.000160
MEAN_MOTION    = 15.80436234
ECCENTRICITY   = .00009137
INCLINATION    = 53.1552
RA_OF_ASC_NODE = 17.6185
ARG_OF_PERICENTER = 78.1043
MEAN_ANOMALY   = 277.9817

EPHEMERIS_TYPE = 0
CLASSIFICATION_TYPE = U
NORAD_CAT_ID   = 66952
ELEMENT_SET_NO = 999
REV_AT_EPOCH   = 303
BSTAR          = -.93681942E-2
MEAN_MOTION_DOT = -.158587E-1
MEAN_MOTION_DDOT = 0

CCSDS_OMM_VERS = 2.0
CREATION_DATE  = 
ORIGINATOR     = 

OBJECT_NAME    = HULIANWANG DIGUI-114
OBJECT_ID      = 2025-287A
CENTER_NAME    = EARTH
REF_FRAME      = TEME
TIME_SYSTEM    = UTC
MEAN_ELEMENT_THEORY = SGP/SGP4

EPOCH          = 2025-12-18T14:58:33.375360
MEAN_MOTION    = 13.67416524
ECCENTRICITY   = .00087038
INCLINATION    = 86.4968
RA_OF_ASC_NODE = 344.0089
ARG_OF_PERICENTER = 188.5983
MEAN_ANOMALY   = 171.5028

EPHEMERIS_TYPE = 0
CLASSIFICATION_TYPE = U
NORAD_CAT_ID   = 66953
ELEMENT_SET_NO = 999
REV_AT_EPOCH   = 133
BSTAR          = .10869035E-4
MEAN_MOTION_DOT = .26E-6
MEAN_MOTION_DDOT = 0

